[{"OBJECT_NAME":"STARLINK-33895","OBJECT_ID":"2025-098J","EPOCH":"2026-03-09T21:14:20.500800","MEAN_MOTION":14.98333798,"ECCENTRICITY":0.00029266,"INCLINATION":70.0002,"RA_OF_ASC_NODE":273.8849,"ARG_OF_PERICENTER":256.1693,"MEAN_ANOMALY":103.914,"EPHEMERIS_TYPE":0,"CLASSIFICATION_TYPE":"U","NORAD_CAT_ID":63934,"ELEMENT_SET_NO":999,"REV_AT_EPOCH":4660,"BSTAR":0.00025674868,"MEAN_MOTION_DOT":2.972e-5,"MEAN_MOTION_DDOT":0},{"OBJECT_NAME":"ION SCV-022","OBJECT_ID":"2025-276S","EPOCH":"2026-03-09T17:53:05.489952","MEAN_MOTION":14.97347265,"ECCENTRICITY":0.00045393,"INCLINATION":97.5376,"RA_OF_ASC_NODE":142.978,"ARG_OF_PERICENTER":154.7099,"MEAN_ANOMALY":205.4346,"EPHEMERIS_TYPE":0,"CLASSIFICATION_TYPE":"U","NORAD_CAT_ID":66682,"ELEMENT_SET_NO":999,"REV_AT_EPOCH":1519,"BSTAR":0.00017276803,"MEAN_MOTION_DOT":1.95e-5,"MEAN_MOTION_DDOT":0}]
